Code,School Name,lat,lon,Full Address,Code Postal,Aggregate Dissemination Area Code,Number of students
106501,Jean-de-Brébeuf,45.5014781419735,-73.6233195728619,"3200 Chemin de la Côte-Sainte-Catherine, Montréal, QC, Canada",H3T 1C9,24660146,1141
107501,Jean de la Mennais,45.4128169,-73.4814564,"870 Chemin de Saint-Jean, La Prairie, QC J5R 2E6, Canada",J5R 2E6,24670001,1518
114501,Jean-Eudes,45.5553531,-73.5787753,"3535 Boulevard Rosemont, Montréal, QC H1X 1K7, Canada",H1X 1K7,24660067,1788
115501,Jésus-Marie de Sillery,46.7784196,-71.2506974,"2047 Chemin Saint-Louis, Québec, QC G1T 1S6, Canada",G1T 1S6,24230052,595
116501,Collège Laval,45.615166,-73.649034,"1275 Avenue du Collège, Laval, QC H7C 1W8, Canada",H7C 1W8,24650007,2068
118501,Marie-de-l'Incarnation,46.3460544,-72.538279,"725 Rue Hart, Trois-Rivières, QC G9A 4R9, Canada",G9A 4R9,24370012,122
119501,Mont Notre-Dame,45.4019499676923,-71.8932601584615,"114 Rue de la Cathédrale, Sherbrooke, QC J1H 4M1, Canada",J1H 4M1,24430021,489
123501,Mont-Sacré-Coeur,45.3936326,-72.7100693,"210 Rue Denison Est, Granby, QC J2H 2R6, Canada",J2H 2R6,24470006,631
124501,Mont-Royal,45.5988097,-73.515753,"2165 Rue Baldwin, Montréal, QC H1L 5A7, Canada",H1L 5A7,24660019,496
125501,Mont-Saint-Louis,45.5676441,-73.6595232,"1700 Boulevard Henri-Bourassa Est, Montréal, QC H2C 1J3, Canada",H2C 1J3,24660078,1454
126501,Notre-Dame,45.4938225,-73.6208918,"3791 Chemin Queen Mary, Montréal, QC H3V 1A8, Canada",H3V 1A8,24660166,1758
127501,Notre-Dame-de-l'Assomption,46.2281955,-72.622223,"225 Rue Saint Jean Baptiste, Nicolet, QC J3T 1H4, Canada",J3T 1H4,24500002,306
128501,Notre-Dame-de-Lourdes,45.5135916338462,-73.5090626969231,"845 Chemin Tiffin, Longueuil, QC J4P 3G5, Canada",J4P 3G5,24580030,1092
136501,College Prep International,45.4541074,-73.6423265,"7475 Rue Sherbrooke Ouest, Montréal, QC H4B 1S5, Canada",H4B 1S5,24660203,63
138501,Citoyen,45.573611,-73.832595,"4001 Boulevard Sainte-Rose, Laval, QC, Canada",H7R 1V3,24650048,840
139501,Regina Assumpta,45.5657021,-73.6493432,"1750 Rue Sauriol East, Montréal, QC, Canada",H2C 1X4,24660071,2248
144501,Rivier,45.1376355857143,-71.7966831285714,"343 Rue Saint-Jacques Nord, Coaticook, QC, Canada",J1A 2R2,24440001,113
145501,Saint-Alexandre,45.4930301,-75.7501515154388,"2425 Rue Saint-Louis, Gatineau, QC J8V 1E7, Canada",J8V 1E7,24810037,1010
147501,Saint-Bernard,45.8818203,-72.4777343,"25 Avenue des Frères, Drummondville, QC J2B 6A2, Canada",J2B 6A2,24490011,773
148501,Saint-Charles-Garnier,46.7950996,-71.2449721243056,"1150 Boulevard René-Lévesque Ouest, Québec, QC G1S 1V7, Canada",G1S 1V7,24230050,814
149501,Saint-Hilaire,45.5723961976941,-73.155883819086,"800 Chemin Rouillard, Mont-Saint-Hilaire, QC J3G 4S6, Canada",J3G 4S6,24570009,668
1501,Antoine Manseau,46.0257138,-73.4375943,"P. 410, 20 Rue Saint-Charles-Borromée Sud C, Joliette, QC J6E 4T1, Canada",J6E 4T1,24610005,510
15503,Kuper,45.4520796,-73.8395781,"2975 Rue Edmond, Kirkland, QC H9H 5K5, Canada",H9H 5K5,24660246,534
157501,Saint-Jean-Vianney,45.6926234108892,-73.5223573451367,"12630 Boulevard Gouin Est, Montréal, QC H1C 1B9, Canada",H1C 1B9,24660002,1358
158501,Saint-Maurice,45.6304869142857,-72.9434146285714,"630 Rue Girouard Ouest, Saint-Hyacinthe, QC J2S 2Y3, Canada",J2S 2Y3,24540021,824
159501,Saint-Paul,45.6848132,-73.4425036,"235 Rue Sainte-Anne, Varennes, QC J3X 1R6, Canada",J3X 1R6,24590004,1009
164501,Sainte-Marcelline,45.5165044384689,-73.7454956670018,"9155 Boulevard Gouin Ouest, Montréal, QC, Canada",H4K 1C2,24660148,563
16501,Lafontaine,45.8042190318059,-74.0082697875995,"2171 Boulevard Maurice, Saint-Jérôme, QC J7Y 4M7, Canada",J7Y 4M7,24750008,1220
166501,Ville-Marie,45.5398138,-73.5590685,"2850 Rue Sherbrooke Est, Montréal, QC H2K 1H3, Canada",H2K 1H3,24660087,771
17501,Laurentienne,46.0148019118276,-74.1966192302455,"1200 14e Avenue, Val-Morin, QC J0T 2R0, Canada",J0T 2R0,24780006,264
188501,Beth Jacob d'Rav Hirschprung,45.5173764,-73.6237830457348,"1750 Avenue Glendale, Montréal, QC H2V 1B3, Canada",H2V 1B3,24660130,154
198503,Emmanuel Christian,45.4869668,-73.8489477,"4698 Boulevard Saint-Jean, Dollard-des-Ormeaux, QC H9H 4S5, Canada",H9H 4S5,24660227,169
204506,"Belz, Campus Jeanne-Mance",45.5197208,-73.5940523,"5030 Rue Jeanne-Mance, Montréal, QC H2V 4J8, Canada",H2V 4J8,24660118,201
219501,Miss Edgar's & Miss Cramp's,45.4909157,-73.596577,"525 Avenue Mount Pleasant, Westmount, QC H3Y 3H6, Canada",H3Y 3H6,24660161,144
226501,Jésus-Marie,46.2024693,-70.7664078,"670 9e Avenue, Beauceville, QC G5X 3P6, Canada",G5X 3P6,24270002,409
229501,Maïmonide (Jacob Safra),45.50030684,-73.6746615714286,"1900 Rue Bourdon, Montréal, QC, Canada",H4M 1V1,24660163,132
237501,Marcelle-Mallet,46.8103628,-71.185420945735,"51 Rue Déziel, Lévis, QC, Canada",G6V 3T6,24250005,673
244503,Marie-Clarac,45.5923673,-73.648843,"3641 Boulevard Gouin Est, Montréal, QC H1H 5L8, Canada",H1H 5L8,24660050,443
26501,Michèle-Provost,45.4984794606557,-73.5863491508197,"1517 Avenue des Pins Ouest, Montréal, QC H3G 1B3, Canada",H3G 1B3,24660132,231
266501,Notre Dame de Nareg,45.542211,-73.732803,"500 67e Av, Laval, QC, Canada",H7V 2M2,24650041,100
269501,Pasteur,45.5341388592593,-73.7187293962963,"12345 Avenue de la Miséricorde, Montréal, QC H4J 2E8, Canada",H4J 2E8,24660135,315
27501,Académie Saint-Louis,46.8299246,-71.316398,"1500 Rue de la Rive-Boisée Sud, Québec, QC G2C 2B3, Canada",G2C 2B3,24230081,1245
29501,L'Académie Sainte-Thérèse,45.6405977,-73.8160227,"425 Rue Blainville Est, Sainte-Thérèse, QC J7E 1W2, Canada",J7E 1W2,24730014,1045
304501,Les Trois Saisons,45.5937617,-73.4330348,"570 Boulevard de Mortagne, Boucherville, QC J4B 5E4, Canada",J4B 5E4,24580057,73
308501,St. George's,45.4938500272727,-73.5971338909091,"3100 Le Boulevard, Montréal, QC H3Y 1R9, Canada",H3Y 1R9,24660132,256
314501,Bromptonville,45.4712368,-71.9530959,"125 Rue du Frère-Théode, Sherbrooke, QC J1C 0S3, Canada",J1C 0S3,24430001,528
315501,du Verbe Divin,45.3964653807589,-72.773095728274,"P. 786, 1021 Rue Cowie C, Granby, QC, Canada",J2J 2E2,24470002,577
317501,François-Bourrin,46.8622401,-71.1946224,"50 Avenue des Cascades, Québec, QC G1E 2J7, Canada",G1E 2J7,24230012,426
321501,Jeanne-Normandin,45.6411059,-73.8640599,"4747 Rue Ambroise-Lafortune, Boisbriand, QC J7H 0A4, Canada",J7H 0A4,24730017,497
322501,Letendre,45.5605313,-73.7225046212552,"1000 Boulevard de l'Avenir, Laval, QC H7N 6J6, Canada",H7N 6J6,24650033,1849
323501,Marcellin-Champagnat,45.3186385,-73.2495291,"14 Chemin des Patriotes Est, Saint-Jean-sur-Richelieu, QC J2X 5P9, Canada",J2X 5P9,24560016,1194
324501,Collège d'Anjou,45.6116067,-73.5922380957447,"11000 Rue Renaude-Lapointe, Montréal, QC H1J 2V7, Canada",H1J 2V7,24660015,727
326501,Mont-Saint-Sacrement,46.976782,-71.502205,"200 Boulevard Saint Sacrement, Saint-Gabriel-de-Valcartier, QC, Canada",G0A 4S0,24220004,877
327501,Notre-Dame,47.8218691,-69.5351084,"56 Rue Saint-Henri, Rivière-du-Loup, QC G5R 2A1, Canada",G5R 2A1,24120005,573
335501,Saint-Joseph de Hull,45.431513,-75.710644,"174 Rue Notre-Dame-de-l'île, Gatineau, QC J8X 3T4, Canada",J8X 3T4,24810021,854
336501,Saint-Joseph,45.633856,-72.9634722,"2875 Avenue Bourdages Nord, Saint-Hyacinthe, QC J2S 5S3, Canada",J2S 5S3,24540022,1059
337501,Saint-Sacrement,45.694929,-73.637489,"901 Rue Saint-Louis, Terrebonne, QC J6W 1K1, Canada",J6W 1K1,24640015,1605
338502,Selwyn House,45.4857588,-73.5983726943502,"101 Chemin de la Côte-Saint-Antoine, Westmount, QC H3Y 3A3, Canada",H3Y 3A3,24660170,194
3501,Beth Rivkah,45.49452875,-73.6458361836943,"5001 Rue Vézina, Montréal, QC H3W 1C2, Canada",H3W 1C2,24660165,121
350501,Externat Sacré-Coeur,45.651161,-73.788291,"535 rue Lefrançois, Rosemère, QC, Canada",J7A 4R5,24730009,1207
352501,Externat Saint-Jean-Eudes,46.8782062,-71.2450152,"650 Avenue du Bourg-Royal, Québec, QC G2L 1M8, Canada",G2L 1M8,24230076,1109
364501,Greaves Adventist,45.4638771,-73.6228135,"2330 Avenue West Hill, Montréal, QC H4B 2S4, Canada",H4B 2S4,24660197,94
365501,Institut d'Enseignement,50.217296,-66.389085,"737 Avenue Gamache, Sept-Œles, QC G4R 2J8, Canada",G4R 2J8,24970012,231
367501,Reine-Marie,45.57285765,-73.6326006391296,"9300 Boulevard Saint-Michel, Montréal, QC, Canada",H1Z 3G9,24660058,1415
374501,Keranna,46.3581268,-72.6077793,"6205 Boulevard des Chenaux, Trois-Rivières, QC G8Y 6Z1, Canada",G8Y 6Z1,24370015,695
377501,Juvénat Notre-Dame du Saint-Laurent,46.7600709050523,-71.2370604233952,"30 Rue du Juvénat, Lévis, QC G6W 7X2, Canada",G6W 7X2,24250020,892
380501,Centennial,45.4936279,-73.5846119,"2065 Rue Sherbrooke Ouest, Montréal, QC H3H 1E3, Canada",H3H 1E3,24660132,162
380501,Centennial,45.4936279,-73.5846119,"2065 Rue Sherbrooke Ouest, Montréal, QC H3H 1E3, Canada",H3H 1E3,24660132,162
380503,"Centennial, française",45.4936279,-73.5846119,"2065 Rue Sherbrooke Ouest, Montréal, QC H3H 1E3, Canada",H3H 1E3,24660132,127
380503,"Centennial, française",45.4936279,-73.5846119,"2065 Rue Sherbrooke Ouest, Montréal, QC H3H 1E3, Canada",H3H 1E3,24660132,127
382501,Hebrew Academy,45.472514,-73.661455,"5700 Avenue Kellert, Côte Saint-Luc, QC H4W 1T4, Canada",H4W 1T4,24660194,214
384501,Ali Ibn Abi Talib,45.5283058,-73.6531972,"1610 Rue de Beauharnois Ouest, Montréal, QC H4N 1J5, Canada",H4N 1J5,24660121,145
385501,Arménienne Sourp Hagop,45.5312269,-73.6959767,"3400 Rue Nadon, Montréal, QC H4J 1P5, Canada",H4J 1P5,24660138,234
388501,Sacred Heart,45.4952779,-73.5883189,"3635 Avenue Atwater, Montréal, QC H3H 1B3, Canada",H3H 1B3,24660132,209
401501,Collège François-de-Laval,46.8152471,-71.2065663,"6 Rue de la Vieille-Université, Québec, QC, Canada",G1R 5X8,24230031,712
403504,"Skver, section française",45.522227,-73.616906,"940 Avenue Outremont, Montréal, QC H2V 4P8, Canada",H2V 4P8,24660130,93
404503,Bialik,45.4791413,-73.6583121,"6500 Chemin Kildare, Côte Saint-Luc, QC H4W 3B8, Canada",H4W 3B8,24660192,317
410501,Loyola,45.4562828,-73.63862,"7272 Rue Sherbrooke Ouest, Montréal, QC H4B 1R2, Canada",H4B 1R2,24660203,687
434501,Saint-Nom-de-Marie,45.5118213,-73.6128621315802,"628 Chemin de la Côte-Sainte-Catherine, Montréal, QC H2V 2C5, Canada",H2V 2C5,24660133,1261
444501,Chicoutimi,48.4184541,-71.0384114,"679 Rue Chabanel, Saguenay, QC G7H 1Z7, Canada",G7H 1Z7,24940032,527
445501,Collège Trinité,45.5355710604836,-73.3021628436659,"1475 CH Des Vingt, Saint-Bruno-de-Montarville, QC J3V 4P6, Canada",J3V 4P6,24580012,867
446501,Sherbrooke,45.4022903,-71.8940442,"195 Rue Marquette, Sherbrooke, QC, Canada",J1H 1L6,24430021,1229
447501,des Pères Maristes,46.7709902,-71.2604731,"2315 Chemin Saint-Louis, Québec, QC G1T 1R5, Canada",G1T 1R5,24230052,672
448501,Sacré-Coeur,45.645108096959,-74.7512824850383,"2738 Québec 148, Grenville-sur-la-Rouge, QC J0V 1B0, Canada",J0V 1B0,24760111,317
449501,des Hauts Sommets,47.1106010992553,-70.7960156202065,"97 Avenue de la Montagne, Saint-Tite-des-Caps, QC G0A 4J0, Canada",G0A 4J0,24210001,100
454501,Saint-François,46.7355112,-71.3888521,"4900 Rue Saint-Félix, Saint-Augustin-de-Desmaures, QC G3A 0L4, Canada",G3A 0L4,24230067,1234
455501,Saint-Joseph,46.3487121,-72.5452795,"858 Rue Laviolette, Trois-Rivières, QC G9A 5J1, Canada",G9A 5J1,24370012,776
456501,Sainte-Marie,46.573154,-72.726721,"5655 boulevard des Hêtres, Shawinigan, QC, Canada",G9N 4V9,24360001,282
457501,Salésien,45.3977478,-71.949683,"135 Rue Don-Bosco Nord, Sherbrooke, QC J1L 1E5, Canada",J1L 1E5,24430012,843
464501,Herzliah High School,45.48779325,-73.6335051882191,"5475 Avenue Mountain Sights, Montréal, QC H3W 2W8, Canada",H3W 2W8,24660174,239
464501,Herzliah High School,45.48779325,-73.6335051882191,"5475 Avenue Mountain Sights, Montréal, QC H3W 2W8, Canada",H3W 2W8,24660174,239
464503,école secondaire Herzliah,45.48779325,-73.6335051882191,"5475 Avenue Mountain Sights, Montréal, QC H3W 2W8, Canada",H3W 2W8,24660174,232
464503,école secondaire Herzliah,45.48779325,-73.6335051882191,"5475 Avenue Mountain Sights, Montréal, QC H3W 2W8, Canada",H3W 2W8,24660174,232
466502,The Study,45.4904932,-73.6002241,"3233 The Boulevard, Westmount, QC H3Y 1S4, Canada",H3Y 1S4,24660161,188
467501,Trafalgar,45.4987965,-73.5843747,"3495 Rue Simpson, Montréal, QC, Canada",H3G 1A1,24660132,86
469501,Villa Maria,45.4815664,-73.6156394,"4245 Boulevard Décarie, Montréal, QC H4A 3K4, Canada",H4A 3K4,24660179,1898
477501,Villa Sainte-Marcelline,45.48979735,-73.617603846042,"815 Avenue Upper Belmont, Westmount, QC H3Y 1K5, Canada",H3Y 1K5,24660161,309
478502,Yéshiva Yavné,45.4607888,-73.66491445,"7946 Chemin Wavell, Côte Saint-Luc, QC H4W 1L7, Canada",H4W 1L7,24660209,185
479501,Yeshiva Gedola Merkaz Hatorah (section anglaise),45.5126606,-73.6208407,"6155 Chemin Deacon, Montréal, QC H3S 2P4, Canada",H3S 2P4,24660140,117
511501,Jeunes Musulmans Canadiens,45.503865,-73.689424,"2205 rue de l'…glise, Montréal, QC H4M 1G5, Canada",H4M 1G5,24660172,233
515501,l'Eau-Vive,46.8260555,-71.3588605,"4690 Avenue Chauveau, Québec, QC G2C 1A7, Canada",G2C 1A7,24230040,170
524501,Nouvelles Frontières,45.4435685,-75.7487709477183,"250 Rue Gamelin, Gatineau, QC J8Y 1W9, Canada",J8Y 1W9,24810025,995
56501,Beaubois,45.5065046,-73.7788823,"4901 Rue du Collège - Beaubois, Montréal, QC H8Y 3T4, Canada",H8Y 3T4,24660181,899
57501,Bourget,45.4716872,-74.3074057,"65 Rue Saint-Pierre, Rigaud, QC J0P 1P0, Canada",J0P 1P0,24710001,1304
57501,Bourget,45.4716872,-74.3074057,"65 Rue Saint-Pierre, Rigaud, QC J0P 1P0, Canada",J0P 1P0,24710001,1304
57502,"Bourget, anglaise",45.4716872,-74.3074057,"65 Rue Saint-Pierre, Rigaud, QC J0P 1P0, Canada",J0P 1P0,24710001,31
57502,"Bourget, anglaise",45.4716872,-74.3074057,"65 Rue Saint-Pierre, Rigaud, QC J0P 1P0, Canada",J0P 1P0,24710001,31
58501,Champagneur,46.0446453,-73.7106128,"3713 Rue Queen, Rawdon, QC J0K 1S0, Canada",J0K 1S0,24620007,280
589501,Le Savoir,45.5070855,-73.8253101,"11950 Boulevard Gouin Ouest, Montréal, QC H8Z 1V6, Canada",H8Z 1V6,24660201,108
59501,Charlemagne,45.46036015,-73.9184127361268,"5000 Rue Pilon, Montréal, QC, Canada",H9K 1G5,24660243,662
602501,Centre académique de l'Outaouais,45.48549985,-75.60594535,"858 Boulevard Maloney Est, Gatineau, QC J8P 1H1, Canada",J8P 1H1,24810036,94
635501,North Star,45.530445,-73.780679,"950 rue …lodie-Boucher, Laval, QC H7W 0C6, Canada",H7W 0C6,24650049,112
640501,Sainte-Anne de Lachine,45.4318997374117,-73.6753208724725,"1250 Boulevard Saint-Joseph Est, Montréal, QC H2J 1L8, Canada",H2J 1L8,24660103,1965
65501,Charles-Lemoyne,45.3999448538462,-73.5475580923077,"125 Place Charles-Lemoyne, Sainte-Catherine, QC J5C 2B6, Canada",J5C 2B6,24670008,1381
65505,Charles-Lemoyne,45.512787126178,-73.506973873822,"901 Chemin Tiffin, Longueuil, QC J4P 3G6, Canada",J4P 3G6,24580030,1333
66501,Clarétain,46.0417871,-71.9653718,"663 Rue Gamache, Victoriaville, QC G6R 0W3, Canada",G6R 0W3,24390008,420
69501,de Champigny,46.79075125,-71.3619859983246,"1400 Route de l'Aéroport, Québec, QC G2G 1G6, Canada",G2G 1G6,24230051,702
711021,Armand-Saint-Onge,48.460536,-67.436575,"95 Avenue du Parc, Amqui, QC, Canada",G5J 2L8,24070003,675
711059,Matane,48.842436,-67.510388,"455 Avenue Saint Rédempteur, Matane, QC G4W 1K9, Canada",G4W 1K9,24080403,852
712003,Paul-Hubert,48.4337461,-68.5200172,"250 Boulevard Arthur - Buies Ouest, Rimouski, QC G5L 7A7, Canada",G5L 7A7,24100008,1575
712005,du le Mistral,48.5831733,-68.2004883,"254 Avenue Ross, Mont-Joli, QC G5H 3M4, Canada",G5H 3M4,24090002,778
713020,Dégelis,47.547759,-68.646422,"385 Avenue Principale, Dégelis, QC, Canada",G5T 1M6,24130001,291
713121,Cabano,47.6777809,-68.884846728501,"120 Boulevard Phil-Latulippe, Témiscouata-sur-le-Lac, QC G0L 1E0, Canada",G0L 1E0,24130003,365
713127,l'Arc-en-Ciel,48.1186116,-69.1761958,"455 Rue Jenkin, Trois-Pistoles, QC G0L 4K0, Canada",G0L 4K0,24110001,312
713132,du Transcontinental,47.477406473929,-69.1583015343065,"685 Rang Notre Dame des Champs, Pohénégamook, QC G0L 1J0, Canada",G0L 1J0,24130002,213
714021,Rivière-du-Loup,47.827128,-69.5416781,"320 Rue Saint-Pierre, Rivière-du-Loup, QC G5R 3V3, Canada",G5R 3V3,24120005,1492
714022,Chanoine-Beaudet,47.5283443,-69.806035,"525 Avenue de l'Église, Saint-Pascal, QC G0L 3Y0, Canada",G0L 3Y0,24140001,374
714023,La Pocatière,47.367656,-70.024204,"950 12e Avenue, La Pocatière, QC, Canada",G0R 1Z0,24140003,401
721016,Cité étudiante,48.501645,-72.227441,"171 Boulevard de la Jeunesse, Roberval, QC G8H 2N9, Canada",G8H 2N9,24910004,708
721039,des Quatre-Vents,48.6469096,-72.4534822,"1099 Boulevard Hamel, Saint-Félicien, QC G8K 2R4, Canada",G8K 2R4,24910002,792
721061,Normandin,48.8411568,-72.519569,"1285 Avenue du Rocher, Normandin, QC G8M 3X4, Canada",G8M 3X4,24920003,426
721085,Jean-Dolbeau,48.8723192,-72.2287262,"300 Avenue Jean Dolbeau, Dolbeau-Mistassini, QC G8L 3C6, Canada",G8L 3C6,24921411,851
722002,Camille-Lavoie,48.54331,-71.655051,"500 Avenue des Métiers Sud, Alma, QC G8B 3C4, Canada",G8B 3C4,24930009,736
722003,Wilbrod-Dufour,48.536708,-71.653192,"850 Avenue Bégin Sud, Alma, QC, Canada",G8B 5W2,24930008,1125
722004,Curé-Hébert,48.3911043,-71.6791741,"250 Rue Turgeon, Hébertville, QC G8N 1S1, Canada",G8N 1S1,24930007,409
722009,Jean-Gauthier,48.645977,-71.693155,"441 Rue Joseph W. Fleury, Alma, QC G8E 2L1, Canada",G8E 2L1,24930008,498
723145,Charles-Gravel,48.4492621,-71.0814007,"350 Rue Saint Gérard, Saguenay, QC G7G 1J2, Canada",G7G 1J2,24940031,1577
723172,Fréchette,48.199768,-70.2385479,"37 Rue Saint-Jean-Baptiste, L'Anse-Saint-Jean, QC G0V 1J0, Canada",G0V 1J0,24940040,83
723173,des Grandes-Marées,48.323458,-70.8787172,"1802 Avenue John Kane, Saguenay, QC G7B 1K2, Canada",G7B 1K2,24940027,885
723175,de l'Odyssée,48.4127909,-71.067761,"985 Rue Bégin, Saguenay, QC, Canada",G7H 4P3,24940034,1926
724002,Arvida,48.4129883,-71.1818116,"2215 Boulevard Mellon, Saguenay, QC G7S 1J6, Canada",G7S 1J6,24940039,1241
724003,Kénogami,48.424168,-71.226552,"1954 rue des …tudiants, Saguenay, QC G7X 4B1, Canada",G7X 4B1,24940022,800
724014,Jonquière,48.4172766,-71.2264872,"3450 Boulevard du Royaume, Saguenay, QC G7S 5T2, Canada",G7S 5T2,24940039,1063
731001,Saint-Aubin,47.4399245969504,-70.5145787732719,"101 Rue Saint-Aubin #200, Baie-Saint-Paul, QC G3Z 0E7, Canada",G3Z 0E7,24160002,532
731002,du Plateau,47.6510316,-70.1549664,"88 Rue des Cimes, La Malbaie--Pointe-au-Pic, QC G5A 1T3, Canada",G5A 1T3,24150002,644
732157,Cardinal-Roy,46.8195339,-71.2387929,"50 Rue du Cardinal-Maurice-Roy, Québec, QC G1K 2K5, Canada",G1K 2K5,24230070,898
732159,Jean-de-Brébeuf,46.8325509,-71.2302004,"1640 8e Avenue, Québec, QC G1J 3N5, Canada",G1J 3N5,24230028,670
732160,Joseph-François-Perrault,46.8055883,-71.2292972,"140 Chemin Sainte-Foy, Québec, QC G1R 1T2, Canada",G1R 1T2,24230069,646
732161,La Camaradière,46.8157991,-71.3148057749602,"3400 Boulevard Neuvialle, Québec, QC G1P 3A8, Canada",G1P 3A8,24230082,1292
732164,de Neufchâtel,46.83579835,-71.3466129997017,"3600 Avenue Chauveau, Québec, QC, Canada",G2C 1A1,24230039,1727
732167,Vanier,46.8131555,-71.2542609,"700 Boulevard Wilfrid-Hamel, Québec, QC G1M 2P9, Canada",G1M 2P9,24230038,372
733002,des Pionniers,46.742161,-71.4541265,"130 Rue Jean Juneau, Saint-Augustin-de-Desmaures, QC G3A 2P2, Canada",G3A 2P2,24230065,453
733030,de L'Ancienne-Lorette,46.8070135,-71.3660318,"1801 Rue Notre-Dame, L'Ancienne-Lorette, QC G2E 3C6, Canada",G2E 3C6,24230055,1125
733031,De Rochebelle,46.7661612,-71.2980989,"1095 Avenue De Rochebelle, Québec, QC G1V 4P8, Canada",G1V 4P8,24230059,2014
733032,les Compagnons-de-Cartier,46.7596284,-71.3284760069518,"3643 Avenue des Compagnons, Québec, QC G1X 3Z6, Canada",G1X 3Z6,24230063,1293
734051,Samuel-De Champlain,46.8596928,-71.2104455,"2740 Avenue Saint David, Québec, QC G1E 4K7, Canada",G1E 4K7,24230008,989
734052,de la Seigneurie,46.8717536,-71.1911591,"645 Avenue du Cénacle, Québec, QC G1E 1B3, Canada",G1E 1B3,24230012,1593
734057,Charlesbourg,46.8637419187685,-71.2563489537362,"900 Rue de la Sorbonne, Québec, QC G1H 1H1, Canada",G1H 1H1,24230019,1691
734060,de la Courvilloise,46.8886576,-71.1624777,"2265 Avenue Larue, Québec, QC G1C 1J9, Canada",G1C 1J9,24230007,1424
734061,du Mont-Sainte-Anne,47.0405982222222,-70.8973245,"10975 Boulevard Sainte-Anne, Beaupré, QC G0A 1E0, Canada",G0A 1E0,24210001,909
734065,le Sommet,46.9155344,-71.3275726,"120 Rue de la Polyvalente, Québec, QC G2N 1G8, Canada",G2N 1G8,24230004,1227
734066,Saint-Pierre et des Sentiers,46.887315,-71.269637,"1090 Chemin de Château-Bigot, Québec, QC G2L 1G1, Canada",G2L 1G1,24230076,1174
735010,Donnacona,46.680761,-71.729342,"320 rue de l'…glise, Donnacona, QC G3M 2A3, Canada",G3M 2A3,24340007,1060
735013,Louis-Jobin,46.8940157,-71.8196968,"400 Boulevard Cloutier, Saint-Raymond, QC G3L 3M8, Canada",G3L 3M8,24340002,708
735014,Saint-Marc,46.6871425,-72.0601428,"1600 Boulevard Bona-Dussault, Saint-Marc-des-Carrières, QC G0A 4B0, Canada",G0A 4B0,24340001,538
741017,Avenues-Nouvelles,46.3618565,-72.5067078404024,"60 Rue Jean Noël Trudel, Trois-Rivières, QC G8T 5W3, Canada",G8T 5W3,24370009,209
741108,L'Escale,46.2503358,-72.9482895,"391 Rue de la Mennais, Louiseville, QC J5V 1T5, Canada",J5V 1T5,24510004,595
741109,Les Estacades,46.379974,-72.524722,"501 rue des …rables, Trois-Rivières, QC, Canada",G8T 5J2,24370008,1924
741110,des Pionniers,46.3519169242056,-72.5587052951173,"1725 Boulevard du Carmel, Trois-Rivières, QC G8Z 3R8, Canada",G8Z 3R8,24370016,1658
741111,Chavigny,46.313751,-72.5836762,"365 Rue Chavigny, Trois-Rivières, QC G9B 1A7, Canada",G9B 1A7,24370020,1736
741112,le Tremplin,46.543217,-72.344852,"100 Chemin de la Rivière à Veillet, Sainte-Geneviève-de-Batiscan, QC G0X 2R0, Canada",G0X 2R0,24370001,339
742097,Val-Mauricie,46.5219566,-72.758469,"1200 Rue de Val-Mauricie, Shawinigan, QC, Canada",G9P 4R3,24360007,955
742100,des Chutes,46.5778282,-72.7315737,"5285 Avenue Albert Tessier, Shawinigan, QC, Canada",G9N 7K7,24360001,798
742105,Paul-Le Jeune,46.7306285,-72.5613309,"405 Boulevard Saint Joseph, Saint-Tite, QC G0X 3H0, Canada",G0X 3H0,24350003,569
742106,du Rocher,46.6122461,-72.69045,"300 7E Rue, Shawinigan, QC, Canada",G9T 4M8,24360003,684
742118,Champagnat,47.4360258,-72.7763886,"600 Rue Desbiens, La Tuque, QC, Canada",G9X 2K1,24900001,459
74501,L'Assomption,45.8289041,-73.4215216,"270 Boulevard de l'Ange-Gardien, L'Assomption, QC J5W 1R7, Canada",J5W 1R7,24600006,1306
7502,Ibn Sina,45.6094954,-73.6356955,"12190 Avenue Brunet, Montréal, QC H1G 5H2, Canada",H1G 5H2,24660038,98
751005,La Frontalière,45.14008675,-71.8000019605464,"311 Rue Saint-Paul Est, Coaticook, QC, Canada",J1A 1G8,24440001,716
751006,Montignac,45.58919535,-70.9091480280087,"3409 Rue Laval, Lac-Mégantic, QC G6B 1A5, Canada",G6B 1A5,24300003,925
751007,Louis-Saint-Laurent,45.4912688,-71.6513550163408,"188 Rue Kennedy, East Angus, QC J0B 1R0, Canada",J0B 1R0,24410002,665
751008,La MFR,45.7855333,-71.0923593,"105 Rue du Couvent, Saint-Romain, QC G0Y 1L0, Canada",G0Y 1L0,24300001,77
752116,du Triolet,45.3814076,-71.9439463,"2965 Boulevard de l'Université, Sherbrooke, QC J1K 2X6, Canada",J1K 2X6,24430014,2321
752117,de la Montée,45.4104514,-71.8674698,"940 Rue de la Sainte-Famille, Sherbrooke, QC, Canada",J1E 2Z6,24430005,1535
752124,Mitchell - Montcalm,45.4030918,-71.9248427,"2050 Boulevard de Portland, Sherbrooke, QC J1J 1T9, Canada",J1J 1T9,24430012,1474
752148,du Phare,45.3781258,-71.8867742,"405 Rue Sara, Sherbrooke, QC J1H 5S6, Canada",J1H 5S6,24430015,1051
753012,de L'Escale,45.7735532,-71.9289671,"430 5e Avenue, Val-des-Sources, QC J1T 1X2, Canada",J1T 1X2,24400002,608
753027,de la Ruche,45.276826,-72.140689,"1255 boulevard des …tudiants, Magog, QC J1X 4P2, Canada",J1X 4P2,24450005,1653
753053,l'Odyssée,45.4962496,-72.3168942,"900 Rue Montcalm, Valcourt, QC J0E 2L0, Canada",J0E 2L0,24480001,258
753057,du Tournesol,45.573899,-71.997594,"250 Rue Saint-Georges, Windsor, QC, Canada",J1S 1K4,24420004,615
75501,Collège de l'Ouest de l'Île,45.4784211,-73.8154989,"851 Rue Tecumseh, Dollard-des-Ormeaux, QC, Canada",H9B 3J9,24660216,187
75501,Collège de l'Ouest de l'Île,45.4784211,-73.8154989,"851 Rue Tecumseh, Dollard-des-Ormeaux, QC, Canada",H9B 3J9,24660216,187
75502,West Island College,45.4784211,-73.8154989,"851 Rue Tecumseh, Dollard-des-Ormeaux, QC, Canada",H9B 3J9,24660216,280
75502,West Island College,45.4784211,-73.8154989,"851 Rue Tecumseh, Dollard-des-Ormeaux, QC, Canada",H9B 3J9,24660216,280
761070,Daniel-Johnson,45.6507837,-73.4987863,"1200 Boulevard du Tricentenaire, Montréal, QC H1B 3A8, Canada",H1B 3A8,24660007,803
761071,Pointe-aux-Trembles,45.68496515,-73.49943285,"15200 Rue Sherbrooke Est, Montréal, QC H1A 3P9, Canada",H1A 3P9,24660001,1510
761075,Antoine-de-Saint-Exupéry,45.584837,-73.6036041,"5150 Boulevard Robert, Montréal, QC, Canada",H1R 1P8,24660047,2935
761078,École sec. Anjou,45.6026497,-73.5384151,"8205 Rue Fonteneau, Montréal, QC H1K 4E1, Canada",H1K 4E1,24660025,1589
761083,Jean-Grou,45.6516979,-73.5812776,"12725 Boulevard Rodolphe-Forget, Montréal, QC H1E 6P6, Canada",H1E 6P6,24660008,1101
761090,Calixa-Lavallée,45.5974726607477,-73.638810517757,"11411 Avenue Pelletier, Montréal, QC H1H 3S3, Canada",H1H 3S3,24660045,1738
761092,Henri-Bourassa,45.6137213,-73.6216354,"6051 Boulevard Maurice-Duplessis, Montréal, QC H1G 1Y6, Canada",H1G 1Y6,24660020,2110
762127,FACE,45.50557688,-73.5745135685714,"3449 Rue University, Montréal, QC H3A 2A8, Canada",H3A 2A8,24660129,391
762248,Éc. le Vitrail,45.53506145,-73.5972098948411,"5927 Rue Boyer, Montréal, QC H2S 2H8, Canada",H2S 2H8,24660102,109
762252,Louise-Trichet,45.5977663,-73.5246799,"2800 Boulevard Lapointe, Montréal, QC H1L 5L9, Canada",H1L 5L9,24660030,594
762253,Dunton,45.5959124169703,-73.5450856341338,"5555 Rue de Boucherville, Montréal, QC H1K 4B6, Canada",H1K 4B6,24660025,614
762254,Louis-Riel,45.5831862,-73.5546404,"5850 Avenue de Carignan, Montréal, QC, Canada",H1M 2H7,24660035,1415
762256,Édouard-Montpetit,45.5768336915493,-73.5373221169014,"6200 Avenue Pierre-De Coubertin, Montréal, QC, Canada",H1N 1S4,24660046,1399
762258,Marguerite-De Lajemmerais,45.5716225,-73.5521415836833,"5555 Rue Sherbrooke Est, Montréal, QC H1N 1A2, Canada",H1N 1A2,24660052,834
762259,Chomedey-De-Maisonneuve,45.5528915,-73.5382092,"1860 Avenue Morgan, Montréal, QC H1V 2R2, Canada",H1V 2R2,24660066,513
762262,Joseph-François-Perrault,45.563586,-73.600241,"7450 Rue François-Perrault, Montréal, QC, Canada",H2A 1P2,24660064,1558
762263,Louis-Joseph-Papineau,45.5711044,-73.6334859009999,"2901 Rue de Louvain East, Montréal, QC H1Z 1J7, Canada",H1Z 1J7,24660058,1235
762264,Pierre-Dupuy,45.529512,-73.5571693913981,"2000 Rue Parthenais, Montréal, QC H2K 3S9, Canada",H2K 3S9,24660096,338
762265,Jeanne-Mance,45.5321624,-73.5681817,"4240 Rue de Bordeaux, Montréal, QC H2H 1Z5, Canada",H2H 1Z5,24660091,1058
762267,De Roberval,45.5493077,-73.6229343,"1275 Rue Jarry Est, Montréal, QC H2E 1X7, Canada",H2E 1X7,24660094,565
762268,Père-Marquette,45.5407979,-73.5933132,"6030 Rue Marquette, Montréal, QC H2G 2Y2, Canada",H2G 2Y2,24660090,1353
762269,Georges-Vanier,45.54986715,-73.6247037462081,"1205 Rue Jarry Est, Montréal, QC H2P 1W9, Canada",H2P 1W9,24660094,1071
762271,Sophie-Barat,45.5623389,-73.6668184,"1239 Boulevard Gouin Est, Montréal, QC H2C 1B3, Canada",H2C 1B3,24660078,1750
762274,Robert-Gravel,45.524615,-73.5939899,"38 Avenue Fairmount Est, Montréal, QC H2T 1C9, Canada",H2T 1C9,24660114,469
762276,Marie-Anne,45.5479592067851,-73.6589555378904,"100 Rue Sauvé Est, Montréal, QC H3L 1H1, Canada",H3L 1H1,24660097,750
762278,Lucien-Pagé,45.53836755,-73.6337530711518,"8200 Boulevard Saint-Laurent, Montréal, QC H2P 2L8, Canada",H2P 2L8,24660110,1350
762281,Évangéline,45.5394803,-73.6917965,"11845 Boulevard de l'Acadie, Montréal, QC H3M 2T4, Canada",H3M 2T4,24660113,833
762284,École internationale de Montréal,45.48678415,-73.5956494359395,"11 Chemin de la Côte-Saint-Antoine, Montréal, QC H3Y 2H7, Canada",H3Y 2H7,24660170,555
762286,Saint-Henri,45.4773199631579,-73.5869118578947,"4115 Rue Saint-Jacques, Montréal, QC, Canada",H4C 2T3,24660171,1077
762287,Honoré-Mercier,45.4557246,-73.5907672,"1935 Boulevard Desmarchais, Montréal, QC H4E 2B9, Canada",H4E 2B9,24660195,718
762288,La Voie,45.49923035,-73.6411063908611,"6755 Rue Lavoie, Montréal, QC H3W 2K8, Canada",H3W 2K8,24660159,1081
762291,Saint-Luc,45.4743655,-73.6430644,"6300 Chemin de la Côte Saint Luc, Montréal, QC H3X 2H4, Canada",H3X 2H4,24660196,1906
763037,École du Sas,45.5165825,-73.6110395,"500 Boulevard Dollard, Montréal, QC H2V 3G2, Canada",H2V 3G2,24660133,256
763038,Mont-Royal,45.5122203,-73.6388915,"50 Avenue Montgomery, Mont-Royal, QC H3R 2B3, Canada",H3R 2B3,24660131,1012
763040,Paul-Gérin-Lajoie-d'Outremont,45.51975255,-73.6048477767749,"475 Avenue Bloomfield, Montréal, QC H2V 3R9, Canada",H2V 3R9,24660127,1067
763041,Saint-Laurent,45.5058139666667,-73.7023009055556,"2395 Boulevard Thimens, Montréal, QC H4R 1T4, Canada",H4R 1T4,24660259,2042
763042,Pierre-Laporte,45.5235351,-73.6376049,"1101 Chemin Rockland, Mont-Royal, QC H3P 2X8, Canada",H3P 2X8,24660131,1273
763136,Collège Saint-Louis,45.4367495,-73.6969392666667,"275 Avenue 36e, Montréal, QC, Canada",H8T 3G3,24660240,944
763138,Cavelier-De LaSalle,45.4188125,-73.6417141,"9199 Rue Centrale, Montréal, QC H8R 2J9, Canada",H8R 2J9,24660238,2055
763139,Dalbé-Viau,45.4422728,-73.680129,"740 Rue Esther-Blondin, Montréal, QC H8S 4C4, Canada",H8S 4C4,24660217,996
763142,Monseigneur-Richard,45.4701716,-73.5616579,"3000 Boulevard Gaétan Laberge, Montréal, QC H4G 3C1, Canada",H4G 3C1,24660178,1223
763236,des Sources,45.49064,-73.811984,"2900 Rue Lake, Dollard-des-Ormeaux, QC H9B 2P1, Canada",H9B 2P1,24660216,1662
763240,Félix-Leclerc,45.4490434460621,-73.82678317134,"311 Avenue Inglewood, Pointe-Claire, QC H9R 2Z8, Canada",H9R 2Z8,24660242,1246
763241,Dorval-Jean XXIII,45.4420418,-73.7526552,"1301 Avenue Dawson, Dorval, QC H9S 1Y3, Canada",H9S 1Y3,24660239,1557
763243,Saint-Georges,45.410663,-73.951955,"3 Avenue Pearson, Senneville, QC H9X 3P7, Canada",H9X 3P7,24660253,780
76501,Lévis,46.8113726,-71.1802276,"9 Rue Monseigneur-Gosselin, Lévis, QC G6V 5K1, Canada",G6V 5K1,24250005,931
771022,Nicolas-Gatineau,45.499177,-75.645426,"360 Boulevard la Vérendrye Est, Gatineau, QC J8P 6K7, Canada",J8P 6K7,24810011,3106
771033,de L'Érablière,45.4933686,-75.738596705585,"500 Rue de Cannes, Gatineau, QC J8V 1J6, Canada",J8V 1J6,24810037,1169
771035,Le Carrefour,45.47308,-75.6983205803299,"50 Chemin de la Savane, Gatineau, QC J8T 3N2, Canada",J8T 3N2,24810014,1402
771038,du Versant,45.4935085,-75.6811215127905,"808 Boulevard de la Cité, Gatineau, QC J8R 3S8, Canada",J8R 3S8,24810032,1183
772044,Grande-Rivière,45.40393165,-75.8436996681802,"100 Rue Broad, Gatineau, QC J9H 6A9, Canada",J9H 6A9,24810030,1685
772046,Mont-Bleu,45.46182085,-75.7712735073999,"389 Boulevard de la Cité-des-Jeunes, Gatineau, QC J8Z 1W6, Canada",J8Z 1W6,24810022,1702
772048,de L'Île,45.4357027,-75.7238319585093,"255 Rue Saint-Rédempteur, Gatineau, QC J8X 2T4, Canada",J8X 2T4,24810021,1482
773010,Louis-Joseph-Papineau,45.6168157,-75.0273713,"378 Rue Papineau, Papineauville, QC J0V 1R0, Canada",J0V 1R0,24800002,573
773030,Hormisdas-Gamelin,45.5882279358025,-75.4037002899065,"580 Rue Maclaren Est, Gatineau, QC J8L 2W1, Canada",J8L 2W1,24810018,1555
774001,Sieur-de-Coulonge,45.8571387478501,-76.7142051860314,"250 Chemin de la Chute, Mansfield-et-Pontefract, QC J0X 1R0, Canada",J0X 1R0,24840001,282
774003,du Coeur-de-la-Gatineau,46.1036188,-76.0931829,"11 Chemin de Blue Sea, Gracefield, QC J0X 1W0, Canada",J0X 1W0,24830004,180
774005,La Cité étudiante,46.3821421506774,-75.9767670776744,"211 Rue Henri Bourassa, Maniwaki, QC J9E 2G5, Canada",J9E 2G5,24830001,421
77501,Collège de Montréal,45.4936947,-73.5845309,"1931 Rue Sherbrooke Ouest, Montréal, QC H3H 1E3, Canada",H3H 1E3,24660132,1489
781049,Marcel-Raymond,47.3540045,-79.3495022,"45 Rue Notre Dame Est, Lorrainville, QC J0Z 2R0, Canada",J0Z 2R0,24850603,339
781060,Gilbert-Théberge,46.7210580699262,-79.1005195350257,"40 Rue Boucher, Témiscaming, QC, Canada",J0Z 3R0,24850007,104
781067,Rivière-des-Quinze,47.5921292,-79.4893964,"15 Rue Desjardins, Notre-Dame-du-Nord, QC J0Z 3B0, Canada",J0Z 3B0,24850603,276
782018,La Source,48.2437474,-79.0262256,"9 10e Rue, Rouyn-Noranda, QC J9X 6G9, Canada",J9X 6G9,24860004,960
782019,D'Iberville,48.2358489,-79.0096201,"275 Avenue Forbes, Rouyn-Noranda, QC, Canada",J9X 5W7,24860002,1146
783023,d'Amos,48.5801049168521,-78.1119092882069,"1 Rue Est #850, Amos, QC, Canada",J9T 2H8,24880481,1302
784023,La Concorde,48.3915854333469,-77.2506027481118,"40 Québec 386, Senneterre, QC J0Y 2M0, Canada",J0Y 2M0,24890001,173
784024,le Tremplin,48.140847,-78.120178,"701 rue des …rables, Malartic, QC J0Y 1Z0, Canada",J0Y 1Z0,24890004,427
784025,Le Carrefour,48.0932943,-77.7858769,"125 Rue Self, Val-d'Or, QC J9P 3N2, Canada",J9P 3N2,24890005,1139
785003,Polyno,48.7959546772754,-79.2071400249966,"500 Rue Principale, La Sarre, QC J9Z 2A2, Canada",J9Z 2A2,24870003,865
791044,Serge-Bouchard,49.1890117314556,-68.2582956874108,"640 Boulevard Blanche, Baie-Comeau, QC G5C 2B3, Canada",G5C 2B3,24960004,735
791046,des Rivières,48.742361,-69.07969,"16A 5e Avenue, Forestville, QC G0T 1E0, Canada",G0T 1E0,24950001,214
791058,des Baies,49.208639,-68.166462,"40 Avenue Michel-Émond, Baie-Comeau, QC G4Z 2K4, Canada",G4Z 2K4,24960003,524
791059,des Berges,48.2409238,-69.5440357,"433 Rue de la Mer, Grandes-Bergeronnes, QC G0T 1G0, Canada",G0T 1G0,24950001,247
792003,Horizon-Blanc,52.7999161,-67.0891688,"130 Rue le Carrefour, Fermont, QC G0G 1J0, Canada",G0G 1J0,24970004,126
792049,L'Abri,50.021689,-66.885999,"18 boulevard des îes, Port-Cartier, QC, Canada",G5B 2N4,24970004,381
793001,Monseigneur-Labrie,50.2450278,-63.5945924,"1239 Rue de la Digue, Havre-Saint-Pierre, QC G0G 1P0, Canada",G0G 1P0,24980001,221
79501,Sainte-Anne de La Pocatière,47.366792,-70.039721,"100 4e Avenue, La Pocatière, QC, Canada",G0R 1Z0,24140003,452
801003,La Porte-du-Nord,49.9188598,-74.373384,"265 Rue Lanctôt, Chibougamau, QC G8P 1C1, Canada",G8P 1C1,24990045,384
801014,Le Delta,49.7605151337488,-77.6267675868087,"100 Rue Rupert, Matagami, QC J0Y 2A0, Canada",J0Y 2A0,24990029,79
801016,La Taïga,49.0544699,-76.9762336,"Case postale, 140 Rue Principale Nord #339, Lebel-sur-Quévillon, QC J0Y 1X0, Canada",J0Y 1X0,24990029,108
812006,Gabriel-Le Courtois,49.123254,-66.495042,"170 Boulevard Sainte Anne Ouest, Sainte-Anne-des-Monts, QC G4V 1R8, Canada",G4V 1R8,24040002,314
812034,Antoine-Roy,48.9906229,-64.3792765,"110 Boulevard Renard Est, Rivière-au-Renard, QC, Canada",G4X 5G8,24030002,170
812040,C.-E.-Pouliot,48.8368746,-64.4775483,"85 Boulevard de Gaspé, Gaspé, QC, Canada",G4X 1A9,24030002,446
813007,du Littoral,48.4025813637326,-64.4986579929599,"188 Rue du Carrefour, Grande-Rivière, QC G0C 1V0, Canada",G0C 1V0,24020001,228
813012,Monseigneur Sévigny,48.353711,-64.68487,"155 Rue Monseigneur - Ross Est, Chandler, QC G0C 1K0, Canada",G0C 1K0,24020002,344
813022,Paspébiac,48.034386272703,-65.2339232056045,"158 9e Rue, Paspébiac, QC G0C 2K0, Canada",G0C 2K0,24050001,229
813027,aux Quatre-Vents,48.0514315,-65.486312,"143 Avenue de Louisbourg, Bonaventure, QC G0C 1E0, Canada",G0C 1E0,24050002,284
813036,Antoine-Bernard,48.1028116,-66.1140725,"15 Rue Comeau, Carleton-sur-Mer, QC G0C 1J0, Canada",G0C 1J0,24060001,495
813042,des Deux-Rivières,47.9775148,-66.93826,"12 Boulevard Perron Est, Matapédia, QC G0J 1V0, Canada",G0J 1V0,24060005,140
821216,Saint-Anselme,46.6291601,-70.966433,"825 Route Bégin, Saint-Anselme, QC G0R 2N0, Canada",G0R 2N0,24190004,411
821237,Saint-Damien,46.6284559,-70.6682960158874,"70 Route Saint-Gérard, Saint-Damien-de-Buckland, QC G0R 2Y0, Canada",G0R 2Y0,24190002,313
821247,Louis-Jacques-Casault,46.9844794333333,-70.5559261333333,"141 Bd Taché E, Montmagny, QC G5V 1B9",G5V 1B9,24180003,749
821251,Bon-Pasteur,47.1210646,-70.3770091,"166 Chemin des Pionniers Ouest, L'Islet, QC G0R 2B0, Canada",G0R 2B0,24170002,353
821261,Saint-Paul,46.74292765,-70.3321354804946,"420 QC-283, Saint-Paul-de-Montminy, QC G0R 3Y0",G0R 3Y0,24180001,136
821277,de la Rencontre,46.9606895,-69.7886733,"240 Rue Saint-Pierre, Saint-Pamphile, QC G0R 3X0, Canada",G0R 3X0,24170003,277
822040,Polyvalente de Disraeli,45.9092323126001,-71.3528969919525,"950 Rue Saint Gerard, Disraeli, QC G0N 1E0, Canada",G0N 1E0,24310006,477
822042,Black Lake,46.045695625,-71.3642692375,"499 Rue Saint-Désiré, Thetford Mines, QC G6H 1L7, Canada",G6H 1L7,24310003,479
822045,Thetford Mines,46.0856162211602,-71.2906546299181,"561 Rue St Patrick, Thetford Mines, QC G6G 4B3",G6G 4B3,24310005,965
823017,Veilleux,46.3145173,-70.88099265,"695 Avenue Robert Cliche, Saint-Joseph-de-Beauce, QC G0S 2V0, Canada",G0S 2V0,24270001,938
823018,Saint-François,46.2106855,-70.7781086,"228 Av. Lambert, Beauceville, QC G5X 3N9",G5X 3N9,24270002,736
823045,des Abénaquis,46.2161207,-70.4858539,"2105 25ieme Avenue, Saint-Prosper, QC G0M 1Y0, Canada",G0M 1Y0,24280002,381
823046,des Appalaches,46.40580225,-70.3597703181352,"135 Boulevard Lessard, Sainte-Justine, QC G0R 1Y0, Canada",G0R 1Y0,24280001,336
823074,Benoît-Vachon,46.4569613,-71.0280808,"919 Route Saint-Martin, Sainte-Marie, QC G6E 1E6, Canada",G6E 1E6,24260004,1577
823095,Bélanger,45.95711415,-70.6493066052771,"30 A Chemin de la Polyvalente, Saint-Martin, QC G0M 1B0, Canada",G0M 1B0,24290009,620
824214,Pointe-Lévy,46.801067,-71.1738382,"55 Rue des Commandeurs, Lévis, QC G6V 0B4, Canada",G6V 0B4,24250006,2251
824220,les Etchemins,46.7200501000293,-71.2666838827213,"3724 Avenue des Églises, Lévis, QC G6X 1M4, Canada",G6X 1M4,24250023,1401
824260,Beaurivage,46.5630032,-71.4371706,"1134 Rue du Centenaire, Saint-Agapit, QC G0S 1Z0, Canada",G0S 1Z0,24330002,843
824270,Pamphile-Le May,46.6203404,-71.7431482,"6380 Rue Garneau, Sainte-Croix, QC G0S 2H0, Canada",G0S 2H0,24330003,573
831102,Curé-Antoine-Labelle,45.604831,-73.783786,"216 Boulevard Marc-Aurèle-Fortin, Laval, QC H7L 1Z5, Canada",H7L 1Z5,24650016,2619
831105,Horizon Jeunesse,45.626734,-73.760021,"155 Boulevard Sainte-Rose Est, Laval, QC H7H 1N9, Canada",H7H 1N9,24650006,1293
831107,Leblanc,45.649378,-73.640801,"1750 Montée Masson, Laval, QC H7E 4P2, Canada",H7E 4P2,24650007,1519
831108,Georges-Vanier,45.599643,-73.653358,"3995 Boulevard Lévesque Est, Laval, QC H7E 2R3, Canada",H7E 2R3,24650009,1159
831114,Mont-de-La Salle,45.5548699,-73.688755624077,"125 Boulevard des Prairies, Laval, QC H7N 2T6, Canada",H7N 2T6,24650033,2002
831119,Saint-Maxime,45.535303,-73.735357,"3680 Boulevard Lévesque Ouest, Laval, QC H7V 1E8, Canada",H7V 1E8,24650046,1947
831150,École d'éducation internationale,45.535043,-73.777763,"5075 Chemin du Souvenir, Laval, QC H7W 1E1, Canada",H7W 1E1,24650043,1508
841008,du Coteau,45.7482943329965,-73.6338896431661,"2121 Rue de l'Alizé, Mascouche, QC J7L 1C8, Canada",J7L 1C8,24640004,984
841027,Jean-Baptiste-Meilleur,45.7601571,-73.4340887,"777 Boulevard Iberville, Repentigny, QC J5Y 1A2, Canada",J5Y 1A2,24600013,1836
841031,Paul-Arseneau,45.8193975,-73.4302528,"170 Bd Hector-Papin, Repentigny, QC J5Z 4M1",J5Z 4M1,24600014,1319
841038,l'Horizon,45.7636187,-73.4785335,"239 Bd J. A. Paré, Repentigny, QC J5Z 4M6",J5Z 4M6,24600022,1087
841041,Félix-Leclerc,45.7923375,-73.4122488,"250 Boulevard Louis-Philippe-Picard, Repentigny, QC J5Y 3W9, Canada",J5Y 3W9,24600023,1964
841050,de l'Amitié,45.8551282,-73.4353829,"1600 Bd de l'Ange Gardien N, L'Assomption, QC J5W 5H1",J5W 5H1,24600020,479
841105,le Prélude,45.744511,-73.60425,"2995 Av. des Ancêtres, Mascouche, QC J7K 1X6",J7K 1X6,24640001,1109
841108,Des Rives,45.707101,-73.577337,"400 Montée Dumais, Terrebonne, QC J6W 6G9, Canada",J6W 6G9,24640010,1289
841112,Armand-Corbeil,45.705567,-73.640516,"795 Rue John F. Kennedy, Terrebonne, QC J6W 1X2, Canada",J6W 1X2,24640015,2250
841131,de l'Odyssée,45.7683282,-73.7262102706221,"2201 Rue de la Jonquille, Terrebonne, QC J7M 1Y8, Canada",J7M 1Y8,24640002,1319
841134,des Trois-Saisons,45.71431,-73.670025,"1658 Boulevard des Seigneurs, Terrebonne, QC J6X 4T1, Canada",J6X 4T1,24640016,1109
842009,du Havre-Jeunesse,45.953444,-73.727,"2175 Rue du Domaine Malo, Sainte-Julienne, QC J0K 2T0, Canada",J0K 2T0,24630002,879
842012,de la Rive,45.8715322,-73.2939233,"60 Rue Douaire de Bondy, Lavaltrie, QC J5T 1K7, Canada",J5T 1K7,24520005,556
842098,de L'Achigan,45.863723,-73.596113,"60 Montée Rémi Henri, Saint-Roch-de-l'Achigan, QC J0K 3H0, Canada",J0K 3H0,24630006,1200
842103,Thérèse-Martin,46.0305914,-73.4216324,"916 Rue Ladouceur, Joliette, QC J6E 3W7, Canada",J6E 3W7,24610005,1778
842104,Pierre-de-Lestage,46.082752,-73.190966,"881 Rue Pierre de Lestage, Berthierville, QC J0K 1A0, Canada",J0K 1A0,24520111,765
842105,Barthélemy-Joliette,46.0133390636364,-73.4456544363636,"345 Rue Sir Mathias Tellier Sud, Joliette, QC J6E 3V5, Canada",J6E 3V5,24610009,1445
842107,des Montagnes,46.6734713,-73.9161075,"290 Rue Brassard, Saint-Michel-des-Saints, QC J0K 3B0, Canada",J0K 3B0,24620001,113
842108,Bermon,46.3024779555005,-73.4006717318302,"1919 Chemin du 6e Rang, Saint-Gabriel-de-Brandon, QC J0K 2N0, Canada",J0K 2N0,24620001,262
842109,des Chutes,46.0515212,-73.7265778,"3144 18e Avenue, Rawdon, QC J0K 1S0, Canada",J0K 1S0,24620007,590
842199,de L'Érablière,46.1676114971949,-73.4333199688893,"5211 Rue Principale, Saint-Félix-de-Valois, QC J0K 2M0, Canada",J0K 2M0,24620005,857
851102,Oka,45.4756846,-74.0612283,"1700 Chem. d'Oka, Oka, QC J0N 1E0",J0N 1E0,24720013,1470
851104,Saint-Gabriel,45.640644668275,-73.8388687505207,"8 Rue Tassé, Sainte-Thérèse, QC J7E 1V3, Canada",J7E 1V3,24730016,1027
851105,Polyvalente Sainte-Thérèse,45.64919,-73.8275257,"401 Boulevard du Domaine, Sainte-Thérèse, QC J7E 4S4, Canada",J7E 4S4,24730014,1963
851106,Lucille-Teasdale,45.6982513,-73.8996167,"1275 Bd Céloron, Blainville, QC J7C 5K6",J7C 5K6,24730003,1093
851107,Liberté-Jeunesse,45.53589905,-73.9302681145941,"2919 Boulevard des Promenades, Sainte-Marthe-sur-le-Lac, QC J0N 1P0, Canada",J0N 1P0,24720010,760
851108,Henri-Dunant,45.6660695,-73.883410109143,"200 Rue Marie Chapleau, Blainville, QC J7C 5Y8, Canada",J7C 5Y8,24730010,848
851143,des Patriotes,45.573842,-73.90906,"99 Rue Grignon, Saint-Eustache, QC J7P 4S4, Canada",J7P 4S4,24722000,1808
851144,Deux-Montagnes,45.546926,-73.905304,"500 Chem. des Anciens, Deux-Montagnes, QC J7R 6A7",J7R 6A7,24720006,1915
851171,Jean-Jacques-Rousseau,45.615419,-73.853511,"2700 Rue Jean Charles Bonenfant, Boisbriand, QC J7H 1P1",J7H 1P1,24730017,1046
851172,du Harfang,45.761207,-73.82375,"140 Rue des Saisons, Sainte-Anne-des-Plaines, QC J0N 1H0",J0N 1H0,24730020,1055
851173,Rive-Nord,45.670287,-73.759545,"400 Rue Joseph Paquette, Bois-des-Filion, QC J6Z 4P7, Canada",J6Z 4P7,24730004,1164
852004,Frenette,45.779887,-74.009861,"109 Rue Marie Victorin, Saint-Jérôme, QC J7Y 2G7, Canada",J7Y 2G7,24750010,993
852008,Saint-Stanislas,45.76371,-73.99083,"680 9e Rue, Saint-Jérôme, QC J7Z 2Y9, Canada",J7Z 2Y9,24750009,699
852010,Saint-Jérôme,45.788010577145,-73.9903780276502,"535 Rue Filion, Saint-Jérôme, QC J7Z 1J6",J7Z 1J6,24750015,3218
852011,Cap-Jeunesse,45.775106,-73.978973,"600 36e Avenue, Saint-Jérôme, QC J7Z 5W2, Canada",J7Z 5W2,24750015,1396
852041,des Hauts-Sommets,45.807086,-73.997736,"1000 112e Avenue, Saint-Jérôme, QC J7Y 5C2, Canada",J7Y 5C2,24750012,1073
852042,Mirabel,45.710482,-73.931244,"17777 Rue du Val d'Espoir, Mirabel, QC J7J 1V7",J7J 1V7,24740001,789
852059,Lavigne,45.6381816,-74.3465751,"452 Avenue d'Argenteuil, Lachute, QC J8H 1W9, Canada",J8H 1W9,24760004,1083
853001,Curé-Mercure,46.12349,-74.582723,"700 Boulevard du Docteur-Gervais, Mont-Tremblant, QC J8E 2T3, Canada",J8E 2T3,24780003,892
853002,Augustin-Norbert-Morin,45.935923,-74.135202,"258 Bd de Sainte-Adèle, Sainte-Adèle, QC J8B 1A9",J8B 1A9,24770111,1130
853028,Monts,46.0523293877741,-74.2762842712372,"101 Rue Légaré, Sainte-Agathe-des-Monts, QC J8C 3B1, Canada",J8C 3B1,24780005,914
854017,Saint-Joseph,46.5582999,-75.4985891,"565 Rue de la Montagne, Mont-Laurier, QC J9L 2C9, Canada",J9L 2C9,24790004,1316
85501,Collège Dina Bélanger,46.8770519,-70.9059417,"1 Rue Saint-Georges, Sainte-Sabine, QC G0R 4H0",G0R 4H0,24280001,281
861005,Fernand-Lefebvre,46.034427,-73.105244,"265 Rue de Ramezay, Sorel-Tracy, QC J3P 4A5, Canada",J3P 4A5,24530013,1015
862002,Casavant,45.6329072538462,-72.9416554230769,"700 Rue Girouard Est, Saint-Hyacinthe, QC J2S 2Y2, Canada",J2S 2Y2,24540020,1156
862004,Fadette,45.6326901,-72.9497362,"2250 Avenue Mailhot, Saint-Hyacinthe, QC J2S 4G2, Canada",J2S 4G2,24540021,953
862005,Hyacinthe-Delorme,45.6409922833333,-72.9508543,"2700 Avenue T.-D.-Bouchard, Saint-Hyacinthe, QC J2S 7G2, Canada",J2S 7G2,24540020,2031
862052,Robert-Ouimet,45.6567746,-72.5729655,"1450 Avenue 3e, Acton Vale, QC J0H 1A0, Canada",J0H 1A0,24480002,737
863005,Paul-Germain-Ostiguy,45.4108743,-73.0136955,"1881 Avenue Saint-Paul, Saint-Césaire, QC J0L 1T0, Canada",J0L 1T0,24550003,678
863057,Beaulieu,45.3030978,-73.2646769,"90 Rue Mackenzie-King, Saint-Jean-sur-Richelieu, QC J3B 5N9, Canada",J3B 5N9,24560008,984
863065,Marcel-Landry,45.2960961,-73.2373386,"365 Avenue Landry, Saint-Jean-sur-Richelieu, QC J2X 2P6, Canada",J2X 2P6,24560010,1524
863067,Chanoine-Armand-Racicot,45.3341095,-73.2749729,"940 Boulevard de Normandie, Saint-Jean-sur-Richelieu, QC J3A 1V6, Canada",J3A 1V6,24560007,1431
863069,Monseigneur-Euclide-Théberge,45.43194705,-73.1488557063152,"677 Rue Desjardins, Marieville, QC J3M 1R1, Canada",J3M 1R1,24550004,1228
864218,Saint-Edmond,45.488777844898,-73.4870811326531,"346 Rue Hubert, Longueuil, QC J4V 1S2, Canada",J4V 1S2,24580040,803
864240,Lucille-Teasdale,45.4491427,-73.4783814,"8350 Boulevard Pelletier, Brossard, QC J4X 1M8, Canada",J4X 1M8,24580058,1048
864271,l'Agora,45.4884183,-73.4507421,"1001 Rue du Centenaire, Longueuil, QC J4V 1B7",J4V 1B7,24580038,363
864275,André-Laurendeau,45.4855106,-73.3956162,"7450 Boulevard Cousineau, Longueuil, QC J3Y 3L4, Canada",J3Y 3L4,24580031,2522
864276,Antoine-Brossard,45.450606,-73.458182,"3055 Boulevard de Rome, Brossard, QC J4Y 1S9, Canada",J4Y 1S9,24580059,1858
864278,Gérard-Filion,45.5117892,-73.4929939,"1330 Boulevard Curé-Poirier Ouest, Longueuil, QC J4K 2G8, Canada",J4K 2G8,24580029,1587
864280,Jacques-Rousseau,45.5396125,-73.4926706,"444 Rue de Gentilly Est, Longueuil, QC J4H 3X7, Canada",J4H 3X7,24580019,2205
864284,Monseigneur-A.-M.-Parent,45.491404,-73.463371,"3875 Grande Allée, Longueuil, QC J4T 2V8, Canada",J4T 2V8,24580035,1902
864287,Saint-Jean-Baptiste,45.5244328,-73.5079821,"700 Rue Duvernay, Longueuil, QC J4K 4L1, Canada",J4K 4L1,24580027,463
86501,Mont-Sainte-Anne,45.3729633,-71.9325961,"2100 Chemin de Sainte-Catherine, Sherbrooke, QC J1N 3V5, Canada",J1N 3V5,24430015,251
865106,Polybel,45.5713718,-73.220018,"725 Rue de Lévis, Beloeil, QC J3G 2M1, Canada",J3G 2M1,24570007,1460
865117,De Mortagne,45.5933015,-73.4387986,"955 Boulevard de Montarville, Boucherville, QC J4B 1Z6, Canada",J4B 1Z6,24580057,2712
865174,Ozias-Leduc,45.5682455,-73.1832743,"525 Rue Jolliet, Mont-Saint-Hilaire, QC J3H 3N2, Canada",J3H 3N2,24570004,1680
865225,du Mont-Bruno,45.53416365,-73.34123785,"221 Boulevard Clairevue Est, Saint-Bruno-de-Montarville, QC J3V 5J3, Canada",J3V 5J3,24580005,1680
865260,École d'éducation internationale,45.5494697,-73.2257518,"720 Rue Morin, McMasterville, QC J3G 1H1, Canada",J3G 1H1,24570010,1248
865276,du Grand-Coteau,45.5815833,-73.346446,"2020 Rue Borduas, Sainte-Julie, QC J3E 2G2, Canada",J3E 2G2,24590009,732
865285,le Carrefour,45.6690473,-73.429258,"123 Chemin du Petit-Bois, Varennes, QC J3X 1P7, Canada",J3X 1P7,24590005,1185
866050,l'Envolée,45.4022323,-72.7510216,"549 Rue Fournier, Granby, QC J2J 2K5, Canada",J2J 2K5,24470008,554
866051,de la Haute-Ville,45.4059289534902,-72.7154535657755,"150 Rue Lansdowne, Granby, QC J2G 9B4, Canada",J2G 9B4,24470003,1201
866052,Joseph-Hermas-Leclerc,45.3773315,-72.7469219,"1111 Rue Simonds Sud, Granby, QC J2G 9H7, Canada",J2G 9H7,24470007,1534
866053,Wilfrid-Léger,45.3433734,-72.5275345666667,"185 Rue Lewis Ouest, Waterloo, QC J0E 2N0, Canada",J0E 2N0,24470004,533
866055,Jean-Jacques-Bertrand,45.2757187,-72.9795814,"255 Rue Saint-André S, Farnham, QC J2N 2W3",J2N 2W3,24460003,914
866057,École Massey-Vanier,45.2110775914053,-72.7751509711216,"222 Rue Mercier, Cowansville, QC J2K 3R9, Canada",J2K 3R9,24460005,1519
867007,de la Magdeleine,45.4036683,-73.4997589,"1100 Boulevard Taschereau, La Prairie, QC J5R 1W8, Canada",J5R 1W8,24670002,2102
867065,Pierre-Bédard,45.257069,-73.613609,"24 Rue Saint-Sauveur, Saint-Rémi, QC J0L 2L0, Canada",J0L 2L0,24680003,678
867076,Louis-Cyr,45.1906822,-73.402772,"319 Rue Saint-Louis, Napierville, QC J0J 1L0, Canada",J0J 1L0,24680001,592
868035,des Patriotes,45.303073,-73.871495,"250 Rue Gagnon, Beauharnois, QC J6N 2W8, Canada",J6N 2W8,24700003,920
868039,de la Baie-Saint-François,45.2404455,-74.1144159,"70 Rue Louis Vi-Major, Salaberry-de-Valleyfield, QC J6T 3G2",J6T 3G2,24700006,1411
868040,Arthur Pigeon,45.0867208,-74.1710625,"1 Rue Arthur-Pigeon, Huntingdon, QC J0S 1H0, Canada",J0S 1H0,24690002,595
869003,Soulanges,45.2967927,-74.3121139,"137 Rue Sainte Catherine, Saint-Polycarpe, QC J0P 1X0, Canada",J0P 1X0,24710018,1410
869004,La Cité-des-Jeunes,45.3917494,-74.0274029,"400 Avenue Saint-Charles, Vaudreuil-Dorion, QC J7V 6B1, Canada",J7V 6B1,24710009,3310
869007,du Chêne-Bleu,45.386442,-73.972276,"225 Boulevard Pincourt, Pincourt, QC J7V 9T2, Canada",J7V 9T2,24710014,1668
871012,Jean-Nicolet,46.233700678,-72.62041291,"497 Rue de Monseigneur Brunault, Nicolet, QC J3T 1H8, Canada",J3T 1H8,24500002,809
871013,La Découverte,46.1107412,-72.3726234,"401 Rue Germain, Saint-Léonard-d'Aston, QC J0C 1M0, Canada",J0C 1M0,24500001,754
871019,les Seigneuries,46.4914873417123,-72.1878583032072,"165 QC-218, Saint-Pierre-les-Becquets, QC G0X 2Z0",G0X 2Z0,24380001,282
872056,Monique-Proulx,45.9404248,-71.9929741,"11 Rue Sainte Jeanne d'Arc, Warwick, QC J0A 1M0, Canada",J0A 1M0,24390009,464
872066,Le tandem,46.0595612,-71.9602103,"20 Rue de l'Ermitage, Victoriaville, QC G6P 3K8, Canada",G6P 3K8,24390012,755
872067,Le boisé,46.0637329,-71.9418668,"605 Notre-Dame St E, Victoriaville, QC G6P 4B2",G6P 4B2,24390010,1931
872069,La Samare,46.2180766,-71.7865757,"1159 Rue Saint Jean, Plessisville, QC G6L 1E1, Canada",G6L 1E1,24320003,909
872070,Sainte-Marie,46.1705493827899,-71.8757990697836,"75 Rue MGR Poirier, Princeville, QC G6L 4Y6",G6L 4Y6,24320004,380
872071,Sainte-Anne,46.2034883,-72.1392005,"111 7ième Avenue, Daveluyville, QC G0Z 1C0, Canada",G0Z 1C0,24390013,124
873050,Jean-Raimbault,45.875744,-72.50116,"175 Rue Pelletier, Drummondville, QC J2C 2W1, Canada",J2C 2W1,24490014,1260
873053,Jeanne-Mance,45.8802311,-72.4796618,"45 Avenue des Frères, Drummondville, QC J2B 6A2, Canada",J2B 6A2,24490011,1067
873055,Marie-Rivier,45.8971211,-72.5017235,"265 Rue St Félix, Drummondville, QC J2C 5M1",J2C 5M1,24490020,1575
873057,La Poudrière,45.8616650533333,-72.4751532666667,"1125 Boulevard Jean-De Brébeuf, Drummondville, QC J2B 4T5, Canada",J2B 4T5,24490016,1444
881002,Quebec,46.7980647,-71.2403616,"945 Avenue Belvédère, Québec, QC G1S 3G2, Canada",G1S 3G2,24230049,381
881003,Dollard-des-Ormeaux,46.89012446,-71.5067643,"18 Rue Ladas, Courcelette, QC G0A 4S0",G0A 4S0,24220004,154
881005,St. Patrick,46.8044944,-71.2247047,"75 Rue de Maisonneuve, Québec, QC G1R 2C4, Canada",G1R 2C4,24230041,654
881007,A.S. Johnson Memorial,46.0716742,-71.2979077,"919 Rue Mooney O, Thetford Mines, QC G6G 3L7",G6G 3L7,24310005,88
881015,Three Rivers,46.3600129,-72.5484552,"1875 Rue Nicolas Perrot, Trois-Rivières, QC G9A 1C5, Canada",G9A 1C5,24370012,145
881016,Shawinigan,46.5448542,-72.7460138,"1125 Avenue des Cèdres, Shawinigan, QC G9N 1P7, Canada",G9N 1P7,24360003,65
881019,Riverside,48.4335118,-71.1834292,"1770 Rue Joule, Saguenay, QC G7S 3B1, Canada",G7S 3B1,24940037,145
881021,MacLean Memorial,49.914692,-74.3662857,"159 5e Avenue, Chibougamau, QC G8P 2E5, Canada",G8P 2E5,24990045,85
882002,New Carlisle,48.008945,-65.337421,"177 Boulevard Gérard D. Levesque, New Carlisle, QC G0C 1Z0, Canada",G0C 1Z0,24050001,79
882112,Queen Elizabeth,50.2115895,-66.3791745,"95 Rue Père Divet, Sept-Îles, QC G4R 3P2, Canada",G4R 3P2,24970012,77
883022,Alexander Galt,45.3696033,-71.8290263,"1700 Rue College, Sherbrooke, QC J1M 2H5, Canada",J1M 2H5,24430009,849
883023,Massey-Vanier,45.211188,-72.7750573,"222 Rue Mercier, Cowansville, QC J2K 3R9",J2K 3R9,24460005,703
883024,Richmond,45.6552883261835,-72.1317594072092,"375 Rue Armstrong, Richmond, QC J0B 2H0, Canada",J0B 2H0,24420001,368
884001,St. John's,45.315079,-73.2724496,"380 Rue Saint-Michel, Saint-Jean-sur-Richelieu, QC J3B 1T4, Canada",J3B 1T4,24560009,304
884016,Heritage Regional,45.491309,-73.391383,"7445 Chemin de Chambly, Saint-Hubert, QC J3Y 3S3, Canada",J3Y 3S3,24580031,1762
884032,Chambly,45.509671,-73.504957,"675 Rue Green, Saint-Lambert, QC J4P 1V9, Canada",J4P 1V9,24580034,354
884035,Centennial,45.4915889798272,-73.4465889944814,"880 Rue Hudson, Greenfield Park, QC J4V 1H1, Canada",J4V 1H1,24580038,1126
88501,Durocher Saint-Lambert,45.5154087513365,-73.5181758432128,"857 Rue Riverside, Saint-Lambert, QC J4P 1C2, Canada",J4P 1C2,24580034,1416
885181,Joliette,46.0141187,-73.4515099,"107 Rue de Lorimier, Joliette, QC J6E 3P2, Canada",J6E 3P2,24610009,247
885183,Lake of Two Mountains,45.539715,-73.911914,"2105 Rue Guy, Deux-Montagnes, QC J7R 1W6, Canada",J7R 1W6,24720007,432
885184,Laurentian,45.6399103,-74.3455937,"448 Avenue d'Argenteuil, Lachute, QC J8H 1W9, Canada",J8H 1W9,24760004,542
885187,Rosemere,45.648609,-73.784973,"530 Northcote St, Rosemère, QC J7A 4Y9",J7A 4Y9,24730013,1296
885189,Ste-Agathe,46.0504901,-74.2919372,"26 Rue Napoléon, Sainte-Agathe-des-Monts, QC J8C 1Z3, Canada",J8C 1Z3,24780005,124
885190,Laval Liberty,45.552488,-73.742148,"3200 Boulevard du Souvenir, Laval, QC H7V 1W9, Canada",H7V 1W9,24650039,1359
886001,Philemon Wright,45.466508,-75.747742,"80 Rue Daniel-Johnson, Gatineau, QC J8Z 1S3, Canada",J8Z 1S3,24810019,740
886002,Pontiac,45.6094352,-76.4929826058411,"455 Rue Maple, Shawville, QC J0X 2Y0, Canada",J0X 2Y0,24840001,383
886004,D'Arcy McGee,45.42213805,-75.8053380056072,"925 Boulevard du Plateau, Gatineau, QC J9J 3G2, Canada",J9J 3G2,24810033,638
886005,Dr. Wilbert Keon,45.9093892,-77.0755007865168,"104 Rue Notre Dame, Chapeau, QC J0X 1M0",J0X 1M0,24840001,66
886012,Saint-Michael,45.8101880086776,-75.9475784363708,"26 Rue Principale, Gracefield, QC J0X 1W0",J0X 1W0,24830004,172
886030,Maniwaki Woodland,46.3782308,-75.9770413,"247 Rue des Oblats, Maniwaki, QC J9E 1G6, Canada",J9E 1G6,24830001,107
887046,Royal Vale,45.4752871,-73.6324388,"5851 Avenue Somerled, Montréal, QC H3X 2A5, Canada",H3X 2A5,24660191,485
887047,F.A.C.E.,45.506115,-73.574838,"3449 Rue University, Montréal, QC H3A 2A8, Canada",H3A 2A8,24660129,126
887101,James Lyng,45.4680905,-73.5957157026606,"5440 Rue Notre-Dame Ouest, Montréal, QC H4C 1T9, Canada",H4C 1T9,24660175,111
887102,John F. Kennedy,45.5600116,-73.6047386,"3030 Rue Villeray, Montréal, QC H2A 3B9",H2A 3B9,24660073,312
887104,LaurenHill,45.503395,-73.697231,"2505 Boulevard de la Côte Vertu, Saint-Laurent, QC H4R 1Z6, Canada",H4R 1Z6,24660259,1099
887105,Laurier MacDonald,45.5754307,-73.5857043,"7355 Boulevard Viau, Montréal, QC H1S 3C2, Canada",H1S 3C2,24660053,629
887106,Lester B. Pearson,45.6105395,-73.6170181,"11575 Avenue P M Favier, Montréal-Nord, QC H1G 6E5, Canada",H1G 6E5,24660020,1024
887107,M.I.N.D.,45.5194097071429,-73.5883406632653,"4563 Rue Saint-Urbain, Montréal, QC H2T 2V9, Canada",H2T 2V9,24660111,27
887108,Marymount,45.4823592,-73.6203536,"5100 Chemin de la Côte Saint Luc, Montréal, QC H3W 2G9, Canada",H3W 2G9,24660179,380
887110,Rosemount,45.5333526,-73.6054809,"3737 Rue Beaubien Est, Montréal, QC H1X 1H2, Canada",H1X 1H2,24660067,428
887111,Royal West,45.4513496,-73.6419073,"189 Avenue Easton, Montréal-Ouest, QC H4X 1L4, Canada",H4X 1L4,24660219,872
887114,Vincent Massey,45.563799,-73.5714268,"5925 27e Avenue, Montréal, QC H1T 3J5, Canada",H1T 3J5,24660061,807
887116,Westmount,45.4831537,-73.5906865,"4350 Rue Sainte-Catherine, Westmount, QC H3Z 1R1, Canada",H3Z 1R1,24660168,813
887203,Options II,45.4587131,-73.5881156,"1741 Rue de Biencourt, Montréal, QC H4E 1T4, Canada",H4E 1T4,24660195,25
888051,Beaconsfield,45.4304982,-73.8577979,"250 Drive Beaurepaire, Beaconsfield, QC H9W 5G7, Canada",H9W 5G7,24660250,853
888055,Westwood,45.4620185,-74.1524148,"69 Côte Saint-Charles, Hudson, QC J0P 1J0, Canada",J0P 1J0,24710002,637
888057,John Rennie,45.449546,-73.8178761,"501 Boulevard Saint-Jean, Pointe-Claire, QC H9R 3J5, Canada",H9R 3J5,24660223,1295
888058,Lakeside,45.4457435,-73.7138282680918,"5050 Rue Sherbrooke, Montréal, QC H8T 1H8, Canada",H8T 1H8,24660217,504
888059,LaSalle,45.4287188909091,-73.6016294454545,"240 9e Avenue, Montréal, QC H8S 3C2, Canada",H8S 3C2,24660225,753
888061,MacDonald,45.405142,-73.944845,"17 Maple St, Sainte-Anne-de-Bellevue, Quebec H9X 2E5",H9X 2E5,24660252,980
888062,Pierrefonds,45.4932212,-73.8497596,"13800 Boulevard de Pierrefonds, Montréal, QC H9A 1A7, Canada",H9A 1A7,24660201,911
888065,St. Thomas,45.4560552,-73.7976835571429,"111 Avenue Broadview, Pointe-Claire, QC H9R 3Z3, Canada",H9R 3Z3,24660233,1334
888069,Beurling,45.4485506835526,-73.587426469079,"6100 Boulevard Champlain, Montréal, QC H4H 1A5, Canada",H4H 1A5,24660215,206
889014,Châteauguay Valley,45.124516,-74.0079087,"1597 Route 138A, Ormstown, QC J0S 1K0, Canada",J0S 1K0,24690001,616
89501,Esther Blondin,45.9559406176537,-73.5631025120377,"101 Rue Sainte Anne, Saint-Jacques, QC J0K 2R0, Canada",J0K 2R0,24630001,1197
9502,Kells,45.4594983,-73.6311296,"6865 Boulevard De Maisonneuve Ouest, Montréal, QC H4B 1T1, Canada",H4B 1T1,24660203,135
96502,Collège Français,45.5094401,-73.4833043,"1340 Boulevard Nobert, Longueuil, QC J4K 2P4, Canada",J4K 2P4,24580029,997
